STARLINK-31719          
1 59495U 24071M   26068.17238148  .00002788  00000+0  11079-3 0  9997
2 59495  42.9990 342.9151 0002138 231.8479 128.2180 15.27581616108126
BANDWAGON-2 OBJECT D    
1 62380U 24247D   26068.52261193  .00011259  00000+0  40119-3 0  9994
2 62380  44.9954 115.6710 0003488 351.1453   8.9368 15.29076102 67732
